NORAD_CAT_ID,OBJECT_NAME,OBJECT_TYPE,EPOCH,MEAN_MOTION,ECCENTRICITY,INCLINATION,RA_OF_ASC_NODE,ARG_OF_PERICENTER,MEAN_ANOMALY,BSTAR,MEAN_MOTION_DOT,MEAN_MOTION_DDOT,TLE_LINE0,TLE_LINE1,TLE_LINE2,SEMIMAJOR_AXIS,PERIOD,APOGEE,PERIGEE,DECAYED
50183.0,STARLINK-3281,PAYLOAD,2023-04-26 13:10:57,15.0884153,6.24e-05,53.2174,274.4058,203.6594,156.4369,0.00048121,7.379e-05,0.0,0 STARLINK-3281,1 50183U 21125AD  23116.54927513  .00007379  00000-0  48121-3 0  9992,2 50183  53.2174 274.4058 0000624 203.6594 156.4369 15.08841530 78411,6917.876,95.437,540.172,539.309,0.0
50183.0,STARLINK-3281,PAYLOAD,2023-04-27 09:50:58,15.08852285,0.000151,53.2123,270.5403,85.7735,274.3429,0.00063169,9.783e-05,0.0,0 STARLINK-3281,1 50183U 21125AD  23117.41039800  .00009783  00000-0  63169-3 0  9992,2 50183  53.2123 270.5403 0001510  85.7735 274.3429 15.08852285 78547,6917.843,95.437,540.752,538.663,0.0
50183.0,STARLINK-3281,PAYLOAD,2023-04-27 13:01:44,15.08838711,8.47e-05,53.2143,269.9447,89.1287,270.9802,0.0002422,3.569e-05,0.0,0 STARLINK-3281,1 50183U 21125AD  23117.54287964  .00003569  00000-0  24220-3 0  9993,2 50183  53.2143 269.9447 0000847  89.1287 270.9802 15.08838711 75431,6917.884,95.438,540.335,539.163,0.0
50183.0,STARLINK-3281,PAYLOAD,2023-04-28 09:41:45,15.0884882,0.0001776,53.212,266.0794,85.7603,274.3592,0.00016851,2.395e-05,0.0,0 STARLINK-3281,1 50183U 21125AD  23118.40399707  .00002395  00000-0  16851-3 0  9995,2 50183  53.2120 266.0794 0001776  85.7603 274.3592 15.08848820 78692,6917.853,95.437,540.947,538.49,0.0
50183.0,STARLINK-3281,PAYLOAD,2023-04-28 16:03:17,15.08845849,9.03e-05,53.2159,264.8878,98.1337,261.9758,0.00014503,2.022e-05,0.0,0 STARLINK-3281,1 50183U 21125AD  23118.66895522  .00002022  00000-0  14503-3 0  9998,2 50183  53.2159 264.8878 0000903  98.1337 261.9758 15.08845849 75608,6917.863,95.437,540.352,539.103,0.0
50183.0,STARLINK-3281,PAYLOAD,2023-04-29 09:32:32,15.0883952,0.0001,53.2161,261.6169,98.843,261.2675,0.0001499,2.099e-05,0.0,0 STARLINK-3281,1 50183U 21125AD  23119.39759829  .00002099  00000-0  14990-3 0  9992,2 50183  53.2161 261.6169 0001000  98.8430 261.2675 15.08839520 78848,6917.882,95.438,540.439,539.055,0.0
50183.0,STARLINK-3281,PAYLOAD,2023-04-29 19:04:50,15.0884872,0.0001162,53.2155,259.8314,106.9896,253.1224,0.00024454,3.607e-05,0.0,0 STARLINK-3281,1 50183U 21125AD  23119.79503433  .00003607  00000-0  24454-3 0  9996,2 50183  53.2155 259.8314 0001162 106.9896 253.1224 15.08848720 75779,6917.854,95.437,540.523,538.915,0.0
50183.0,STARLINK-3281,PAYLOAD,2023-04-30 14:09:28,15.08841546,0.0001187,53.2161,256.2644,95.9467,264.166,0.00013689,1.892e-05,0.0,0 STARLINK-3281,1 50183U 21125AD  23120.58991880  .00001892  00000-0  13689-3 0  9994,2 50183  53.2161 256.2644 0001187  95.9467 264.1660 15.08841546 75899,6917.876,95.437,540.562,538.92,0.0
50183.0,STARLINK-3281,PAYLOAD,2023-05-01 14:00:16,15.08838407,0.0001272,53.2154,251.8012,107.102,253.0111,8.6887e-05,1.095e-05,0.0,0 STARLINK-3281,1 50183U 21125AD  23121.58352110  .00001095  00000-0  86887-4 0  9998,2 50183  53.2154 251.8012 0001272 107.1020 253.0111 15.08838407 76045,6917.885,95.438,540.63,538.87,0.0
50183.0,STARLINK-3281,PAYLOAD,2023-05-02 13:51:02,15.08849333,0.0001238,53.2165,247.3397,106.5487,253.5641,0.00019302,2.786e-05,0.0,0 STARLINK-3281,1 50183U 21125AD  23122.57711503  .00002786  00000-0  19302-3 0  9998,2 50183  53.2165 247.3397 0001238 106.5487 253.5641 15.08849333 79322,6917.852,95.437,540.573,538.86,0.0
50183.0,STARLINK-3281,PAYLOAD,2023-05-02 17:01:48,15.08854559,0.0001089,53.2153,246.7478,91.3827,268.729,0.0003311,4.988e-05,0.0,0 STARLINK-3281,1 50183U 21125AD  23122.70959368  .00004988  00000-0  33110-3 0  9995,2 50183  53.2153 246.7478 0001089  91.3827 268.7290 15.08854559 76214,6917.836,95.437,540.454,538.948,0.0
50183.0,STARLINK-3281,PAYLOAD,2023-05-03 00:58:45,15.08841013,0.0001433,53.2157,245.2585,90.0527,270.0629,9.4377e-05,1.214e-05,0.0,0 STARLINK-3281,1 50183U 21125AD  23123.04080142  .00001214  00000-0  94377-4 0  9990,2 50183  53.2157 245.2585 0001433  90.0527 270.0629 15.08841013 76265,6917.877,95.437,540.734,538.751,0.0
50183.0,STARLINK-3281,PAYLOAD,2023-05-03 13:41:50,15.08836321,0.0001246,53.2153,242.8829,106.7252,253.3877,-5.2062e-05,-1.116e-05,0.0,0 STARLINK-3281,1 50183U 21125AD  23123.57072159 -.00001116  00000-0 -52062-4 0  9995,2 50183  53.2153 242.8829 0001246 106.7252 253.3877 15.08836321 79478,6917.892,95.438,540.619,538.895,0.0
50183.0,STARLINK-3281,PAYLOAD,2023-05-03 15:17:13,15.0883857,0.0001004,53.2152,242.5868,99.0792,261.0314,-1.0002e-05,-4.47e-06,0.0,0 STARLINK-3281,1 50183U 21125AD  23123.63695971 -.00000447  00000-0 -10002-4 0  9999,2 50183  53.2152 242.5868 0001004  99.0792 261.0314 15.08838570 79483,6917.885,95.438,540.444,539.055,0.0
50183.0,STARLINK-3281,PAYLOAD,2023-05-04 02:24:55,15.08840345,0.0001065,53.2158,240.5036,105.2119,254.8991,2.4951e-05,1.09e-06,0.0,0 STARLINK-3281,1 50183U 21125AD  23124.10063943  .00000109  00000-0  24951-4 0  9991,2 50183  53.2158 240.5036 0001065 105.2119 254.8991 15.08840345 76429,6917.879,95.438,540.481,539.008,0.0
50183.0,STARLINK-3281,PAYLOAD,2023-05-04 13:32:37,15.08839056,0.0001013,53.2153,238.4222,105.3351,254.7753,7.9334e-05,9.75e-06,0.0,0 STARLINK-3281,1 50183U 21125AD  23124.56432208  .00000975  00000-0  79334-4 0  9991,2 50183  53.2153 238.4222 0001013 105.3351 254.7753 15.08839056 79626,6917.883,95.438,540.449,539.047,0.0
50183.0,STARLINK-3281,PAYLOAD,2023-05-04 15:08:00,15.08842038,9.6e-05,53.2154,238.1249,103.3977,256.7122,0.00014776,2.065e-05,0.0,0 STARLINK-3281,1 50183U 21125AD  23124.63056123  .00002065  00000-0  14776-3 0  9997,2 50183  53.2154 238.1249 0000960 103.3977 256.7122 15.08842038 79632,6917.874,95.437,540.403,539.075,0.0
50183.0,STARLINK-3281,PAYLOAD,2023-05-05 07:01:52,15.08839931,0.0001099,53.2155,235.1519,82.4039,277.7078,0.00021506,3.137e-05,0.0,0 STARLINK-3281,1 50183U 21125AD  23125.29296545  .00003137  00000-0  21506-3 0  9994,2 50183  53.2155 235.1519 0001099  82.4039 277.7078 15.08839931 76605,6917.881,95.438,540.506,538.985,0.0
50183.0,STARLINK-3281,PAYLOAD,2023-05-05 14:58:47,15.08842649,0.0001156,53.2155,233.6651,78.8334,281.2788,0.00050939,7.829e-05,0.0,0 STARLINK-3281,1 50183U 21125AD  23125.62416600  .00007829  00000-0  50939-3 0  9991,2 50183  53.2155 233.6651 0001156  78.8334 281.2788 15.08842649 79786,6917.872,95.437,540.537,538.938,0.0
50183.0,STARLINK-3281,PAYLOAD,2023-05-06 13:14:11,15.08845698,0.0001336,53.2166,229.5042,72.6539,287.4599,0.00021911,3.201e-05,0.0,0 STARLINK-3281,1 50183U 21125AD  23126.55152528  .00003201  00000-0  21911-3 0  9998,2 50183  53.2166 229.5042 0001336  72.6539 287.4599 15.08845698 79926,6917.863,95.437,540.652,538.804,0.0
50183.0,STARLINK-3281,PAYLOAD,2023-05-07 00:21:53,15.08849582,0.0001198,53.216,227.4225,78.3216,281.7911,0.00017734,2.536e-05,0.0,0 STARLINK-3281,1 50183U 21125AD  23127.01520147  .00002536  00000-0  17734-3 0  9994,2 50183  53.2160 227.4225 0001198  78.3216 281.7911 15.08849582 76862,6917.851,95.437,540.545,538.887,0.0
50183.0,STARLINK-3281,PAYLOAD,2023-05-07 13:04:58,15.08843786,0.0001134,53.2151,225.04,112.2052,247.906,5.3523e-05,5.64e-06,0.0,0 STARLINK-3281,1 50183U 21125AD  23127.54512230  .00000564  00000-0  53523-4 0  9992,2 50183  53.2151 225.0400 0001134 112.2052 247.9060 15.08843786 80074,6917.869,95.437,540.518,538.949,0.0
50183.0,STARLINK-3281,PAYLOAD,2023-05-08 12:55:45,15.08843736,0.0001052,53.2148,220.5807,95.6587,264.4525,8.5427e-05,1.072e-05,0.0,0 STARLINK-3281,1 50183U 21125AD  23128.53872352  .00001072  00000-0  85427-4 0  9999,2 50183  53.2148 220.5807 0001052  95.6587 264.4525 15.08843736 80229,6917.869,95.437,540.462,539.006,0.0
50183.0,STARLINK-3281,PAYLOAD,2023-05-09 12:46:33,15.08823174,0.0001143,53.2159,216.1192,106.7907,253.3211,0.00032657,4.911e-05,0.0,0 STARLINK-3281,1 50183U 21125AD  23129.53233078  .00004911  00000-0  32657-3 0  9997,2 50183  53.2159 216.1192 0001143 106.7907 253.3211 15.08823174 80379,6917.932,95.439,540.588,539.006,0.0
50183.0,STARLINK-3281,PAYLOAD,2023-05-10 11:01:57,15.08836649,0.0001109,53.2165,211.958,103.4642,256.6474,8.8862e-05,1.127e-05,0.0,0 STARLINK-3281,1 50183U 21125AD  23130.45969113  .00001127  00000-0  88862-4 0  9992,2 50183  53.2165 211.9580 0001109 103.4642 256.6474 15.08836649 80516,6917.891,95.438,540.523,538.988,0.0
50183.0,STARLINK-3281,PAYLOAD,2023-05-10 14:12:43,15.08842262,0.0001164,53.2171,211.3624,104.1101,256.002,9.6285e-05,1.245e-05,0.0,0 STARLINK-3281,1 50183U 21125AD  23130.59216755  .00001245  00000-0  96285-4 0  9993,2 50183  53.2171 211.3624 0001164 104.1101 256.0020 15.08842262 77408,6917.873,95.437,540.544,538.933,0.0
50183.0,STARLINK-3281,PAYLOAD,2023-05-11 10:52:43,15.08844948,0.000121,53.2171,207.4971,95.4626,264.6505,0.00010467,1.379e-05,0.0,0 STARLINK-3281,1 50183U 21125AD  23131.45328675  .00001379  00000-0  10467-3 0  9999,2 50183  53.2171 207.4971 0001210  95.4626 264.6505 15.08844948 80663,6917.865,95.437,540.567,538.893,0.0
50183.0,STARLINK-3281,PAYLOAD,2023-05-11 22:00:26,15.08843543,0.0001157,53.2161,205.4153,90.3434,269.769,5.3095e-05,5.57e-06,0.0,0 STARLINK-3281,1 50183U 21125AD  23131.91696808  .00000557  00000-0  53095-4 0  9998,2 50183  53.2161 205.4153 0001157  90.3434 269.7690 15.08843543 80732,6917.87,95.437,540.535,538.934,0.0
50183.0,STARLINK-3281,PAYLOAD,2023-05-11 23:35:49,15.08839907,0.0001182,53.216,205.1197,95.7968,264.3159,0.00010929,1.452e-05,0.0,0 STARLINK-3281,1 50183U 21125AD  23131.98320958  .00001452  00000-0  10929-3 0  9998,2 50183  53.2160 205.1197 0001182  95.7968 264.3159 15.08839907 77618,6917.881,95.438,540.563,538.928,0.0
50183.0,STARLINK-3281,PAYLOAD,2023-05-12 09:08:08,15.08833432,0.0001195,53.2161,203.3348,93.5212,266.5917,3.9667e-05,3.43e-06,0.0,0 STARLINK-3281,1 50183U 21125AD  23132.38065686  .00000343  00000-0  39667-4 0  9996,2 50183  53.2161 203.3348 0001195  93.5212 266.5917 15.08833432 77678,6917.9,95.438,540.592,538.939,0.0
